NORAD_CAT_ID,OBJECT_NAME,OBJECT_TYPE,EPOCH,MEAN_MOTION,ECCENTRICITY,INCLINATION,RA_OF_ASC_NODE,ARG_OF_PERICENTER,MEAN_ANOMALY,BSTAR,MEAN_MOTION_DOT,MEAN_MOTION_DDOT,TLE_LINE0,TLE_LINE1,TLE_LINE2,SEMIMAJOR_AXIS,PERIOD,APOGEE,PERIGEE,DECAYED
55929.0,STARLINK-5898,PAYLOAD,2023-09-06 20:00:01,14.98328829,0.0003018,70.0002,91.0115,269.3187,90.7627,1.8971e-06,-7e-07,0.0,0 STARLINK-5898,1 55929U 23037R   23249.83334851 -.00000070  00000-0  18971-5 0  9999,2 55929  70.0002  91.0115 0003018 269.3187  90.7627 14.98328829 26458,6950.197,96.107,574.159,569.964,0.0
55929.0,STARLINK-5898,PAYLOAD,2023-09-07 13:37:30,14.98330746,0.0003089,69.9993,89.159,269.543,90.5375,-8.8504e-05,-1.149e-05,0.0,0 STARLINK-5898,1 55929U 23037R   23250.56770997 -.00001149  00000-0 -88504-4 0  9993,2 55929  69.9993  89.1590 0003089 269.5430  90.5375 14.98330746 26561,6950.191,96.107,574.202,569.909,0.0
55929.0,STARLINK-5898,PAYLOAD,2023-09-08 00:50:26,14.98330979,0.0003085,69.9994,87.9807,269.6311,90.4494,-7.2124e-05,-9.54e-06,0.0,0 STARLINK-5898,1 55929U 23037R   23251.03502899 -.00000954  00000-0 -72124-4 0  9994,2 55929  69.9994  87.9807 0003085 269.6311  90.4494 14.98330979 26978,6950.19,96.107,574.199,569.911,0.0
55929.0,STARLINK-5898,PAYLOAD,2023-09-08 13:39:30,14.98328656,0.0003098,69.999,86.6338,269.6383,90.4421,3.3444e-05,3.06e-06,0.0,0 STARLINK-5898,1 55929U 23037R   23251.56910664  .00000306  00000-0  33444-4 0  9996,2 55929  69.9990  86.6338 0003098 269.6383  90.4421 14.98328656 26713,6950.197,96.107,574.215,569.909,0.0
55929.0,STARLINK-5898,PAYLOAD,2023-09-08 18:27:54,14.98329337,0.0003066,70.0001,86.1296,269.4307,90.65,4.1207e-05,3.99e-06,0.0,0 STARLINK-5898,1 55929U 23037R   23251.76938622  .00000399  00000-0  41207-4 0  9990,2 55929  70.0001  86.1296 0003066 269.4307  90.6500 14.98329337 26746,6950.195,96.107,574.191,569.929,0.0
55929.0,STARLINK-5898,PAYLOAD,2023-09-09 00:52:27,14.98331992,0.0003133,70.0,85.4565,270.0585,90.0215,6.5093e-05,6.84e-06,0.0,0 STARLINK-5898,1 55929U 23037R   23252.03642399  .00000684  00000-0  65093-4 0  9990,2 55929  70.0000  85.4565 0003133 270.0585  90.0215 14.98331992 27127,6950.187,96.107,574.229,569.874,0.0
55929.0,STARLINK-5898,PAYLOAD,2023-09-09 13:41:31,14.98327498,0.0003043,70.0003,84.1103,268.1508,91.9302,2.4602e-05,2.01e-06,0.0,0 STARLINK-5898,1 55929U 23037R   23252.57050847  .00000201  00000-0  24602-4 0  9996,2 55929  70.0003  84.1103 0003043 268.1508  91.9302 14.98327498 26860,6950.201,96.107,574.181,569.951,0.0
55929.0,STARLINK-5898,PAYLOAD,2023-09-09 16:53:48,14.983271,0.0003044,70.0003,83.7736,268.5919,91.4891,1.9876e-05,1.44e-06,0.0,0 STARLINK-5898,1 55929U 23037R   23252.70402906  .00000144  00000-0  19876-4 0  9991,2 55929  70.0003  83.7736 0003044 268.5919  91.4891 14.98327100 27227,6950.202,96.107,574.183,569.951,0.0
55929.0,STARLINK-5898,PAYLOAD,2023-09-10 13:43:32,14.98333197,0.0003044,70.0002,81.5852,268.7339,91.3471,2.3979e-05,1.93e-06,0.0,0 STARLINK-5898,1 55929U 23037R   23253.57190510  .00000193  00000-0  23979-4 0  9995,2 55929  70.0002  81.5852 0003044 268.7339  91.3471 14.98333197 27012,6950.183,96.107,574.164,569.932,0.0
55929.0,STARLINK-5898,PAYLOAD,2023-09-10 18:31:56,14.98332755,0.000306,70.0003,81.0801,269.6054,90.4755,1.9479e-05,1.39e-06,0.0,0 STARLINK-5898,1 55929U 23037R   23253.77218513  .00000139  00000-0  19479-4 0  9991,2 55929  70.0003  81.0801 0003060 269.6054  90.4755 14.98332755 27388,6950.184,96.107,574.176,569.923,0.0
55929.0,STARLINK-5898,PAYLOAD,2023-09-11 13:45:33,14.98327134,0.0003053,70.0004,79.0599,269.5289,90.552,-5.5023e-06,-1.59e-06,0.0,0 STARLINK-5898,1 55929U 23037R   23254.57330847 -.00000159  00000-0 -55023-5 0  9995,2 55929  70.0004  79.0599 0003053 269.5289  90.5520 14.98327134 27163,6950.202,96.107,574.189,569.945,0.0
55929.0,STARLINK-5898,PAYLOAD,2023-09-11 18:33:58,14.98326992,0.0003067,70.0004,78.555,269.5755,90.5053,-1.2818e-05,-2.46e-06,0.0,0 STARLINK-5898,1 55929U 23037R   23254.77358901 -.00000246  00000-0 -12818-4 0  9999,2 55929  70.0004  78.5550 0003067 269.5755  90.5053 14.98326992 27530,6950.202,96.107,574.199,569.936,0.0
55929.0,STARLINK-5898,PAYLOAD,2023-09-12 13:47:34,14.98330308,0.0003066,70.0005,76.5351,270.2503,89.8304,-2.0086e-05,-3.33e-06,0.0,0 STARLINK-5898,1 55929U 23037R   23255.57470717 -.00000333  00000-0 -20086-4 0  9991,2 55929  70.0005  76.5351 0003066 270.2503  89.8304 14.98330308 27319,6950.192,96.107,574.188,569.926,0.0
55929.0,STARLINK-5898,PAYLOAD,2023-09-12 20:12:06,14.98331551,0.0002979,70.0003,75.8614,267.1888,92.893,-1.1406e-05,-2.29e-06,0.0,0 STARLINK-5898,1 55929U 23037R   23255.84174592 -.00000229  00000-0 -11406-4 0  9993,2 55929  70.0003  75.8614 0002979 267.1888  92.8930 14.98331551 27358,6950.188,96.107,574.124,569.983,0.0
55929.0,STARLINK-5898,PAYLOAD,2023-09-12 21:48:14,14.98331754,0.0003079,70.0004,75.6931,269.9457,90.1349,-7.2126e-06,-1.79e-06,0.0,0 STARLINK-5898,1 55929U 23037R   23255.90850565 -.00000179  00000-0 -72126-5 0  9992,2 55929  70.0004  75.6931 0003079 269.9457  90.1349 14.98331754 27702,6950.187,96.107,574.192,569.913,0.0
55929.0,STARLINK-5898,PAYLOAD,2023-09-13 05:48:55,14.98314713,0.0003071,70.0004,74.8514,265.3171,94.7637,0.00032849,3.827e-05,0.0,0 STARLINK-5898,1 55929U 23037R   23256.24230862  .00003827  00000-0  32849-3 0  9999,2 55929  70.0004  74.8514 0003071 265.3171  94.7637 14.98314713 27756,6950.24,96.108,574.24,569.971,0.0
55929.0,STARLINK-5898,PAYLOAD,2023-09-13 13:49:35,14.98332329,0.0003106,70.0001,74.0097,270.167,89.9133,6.7351e-05,7.11e-06,0.0,0 STARLINK-5898,1 55929U 23037R   23256.57610190  .00000711  00000-0  67351-4 0  9997,2 55929  70.0001  74.0097 0003106 270.1670  89.9133 14.98332329 27466,6950.186,96.107,574.209,569.892,0.0
55929.0,STARLINK-5898,PAYLOAD,2023-09-13 18:37:59,14.98333706,0.0003121,70.0002,73.5051,270.5949,89.4852,6.7959e-05,7.18e-06,0.0,0 STARLINK-5898,1 55929U 23037R   23256.77638070  .00000718  00000-0  67959-4 0  9997,2 55929  70.0002  73.5051 0003121 270.5949  89.4852 14.98333706 27835,6950.181,96.107,574.216,569.877,0.0
55929.0,STARLINK-5898,PAYLOAD,2023-09-13 21:50:15,14.98334375,0.000311,70.0002,73.1683,270.6058,89.4745,7.2865e-05,7.77e-06,0.0,0 STARLINK-5898,1 55929U 23037R   23256.90989978  .00000777  00000-0  72865-4 0  9995,2 55929  70.0002  73.1683 0003110 270.6058  89.4745 14.98334375 27511,6950.179,96.107,574.206,569.883,0.0
55929.0,STARLINK-5898,PAYLOAD,2023-09-14 13:51:36,14.98325943,0.0003076,70.0002,71.4851,270.409,89.6716,-3.8344e-05,-5.5e-06,0.0,0 STARLINK-5898,1 55929U 23037R   23257.57750805 -.00000550  00000-0 -38344-4 0  9999,2 55929  70.0002  71.4851 0003076 270.4090  89.6716 14.98325943 27616,6950.205,96.107,574.208,569.933,0.0
55929.0,STARLINK-5898,PAYLOAD,2023-09-14 18:40:00,14.98326067,0.0003089,70.0004,70.9801,270.3736,89.7069,-4.9983e-05,-6.89e-06,0.0,0 STARLINK-5898,1 55929U 23037R   23257.77778866 -.00000689  00000-0 -49983-4 0  9992,2 55929  70.0004  70.9801 0003089 270.3736  89.7069 14.98326067 27987,6950.205,96.107,574.217,569.923,0.0
55929.0,STARLINK-5898,PAYLOAD,2023-09-14 20:16:09,14.98325675,0.0003101,70.0004,70.8118,270.4589,89.6215,-5.4565e-05,-7.44e-06,0.0,0 STARLINK-5898,1 55929U 23037R   23257.84454910 -.00000744  00000-0 -54565-4 0  9995,2 55929  70.0004  70.8118 0003101 270.4589  89.6215 14.98325675 27659,6950.206,96.107,574.227,569.916,0.0
55929.0,STARLINK-5898,PAYLOAD,2023-09-15 10:41:21,14.98333692,0.0003083,70.0005,69.2969,271.1723,88.9083,-9.7807e-06,-2.1e-06,0.0,0 STARLINK-5898,1 55929U 23037R   23258.44538302 -.00000210  00000-0 -97807-5 0  9995,2 55929  70.0005  69.2969 0003083 271.1723  88.9083 14.98333692 28084,6950.181,96.107,574.189,569.904,0.0
55929.0,STARLINK-5898,PAYLOAD,2023-09-15 13:53:37,14.98334339,0.0003091,70.0005,68.9602,271.0227,89.0578,-3.0235e-06,-1.29e-06,0.0,0 STARLINK-5898,1 55929U 23037R   23258.57890192 -.00000129  00000-0 -30235-5 0  9998,2 55929  70.0005  68.9602 0003091 271.0227  89.0578 14.98334339 27765,6950.179,96.107,574.193,569.896,0.0
55929.0,STARLINK-5898,PAYLOAD,2023-09-16 10:43:22,14.98326622,0.000313,70.0006,66.7725,267.6155,92.4646,4.2322e-05,4.12e-06,0.0,0 STARLINK-5898,1 55929U 23037R   23259.44678372  .00000412  00000-0  42322-4 0  9991,2 55929  70.0006  66.7725 0003130 267.6155  92.4646 14.98326622 28236,6950.203,96.107,574.244,569.893,0.0
55929.0,STARLINK-5898,PAYLOAD,2023-09-16 13:55:38,14.98326612,0.000313,70.0006,66.4358,267.6486,92.4315,3.9519e-05,3.79e-06,0.0,0 STARLINK-5898,1 55929U 23037R   23259.58030396  .00000379  00000-0  39519-4 0  9990,2 55929  70.0006  66.4358 0003130 267.6486  92.4315 14.98326612 27918,6950.203,96.107,574.244,569.893,0.0
55929.0,STARLINK-5898,PAYLOAD,2023-09-17 12:21:31,14.98338939,0.0003144,70.0008,64.0796,269.8329,90.247,-0.00026795,-3.289e-05,0.0,0 STARLINK-5898,1 55929U 23037R   23260.51494697 -.00003289  00000-0 -26795-3 0  9999,2 55929  70.0008  64.0796 0003144 269.8329  90.2470 14.98338939 28054,6950.165,96.106,574.215,569.845,0.0
55929.0,STARLINK-5898,PAYLOAD,2023-09-17 17:09:55,14.983267,0.0003219,70.0009,63.5746,270.3749,89.7041,-4.8644e-05,-6.73e-06,0.0,0 STARLINK-5898,1 55929U 23037R   23260.71522785 -.00000673  00000-0 -48644-4 0  9993,2 55929  70.0009  63.5746 0003219 270.3749  89.7041 14.98326700 28421,6950.203,96.107,574.305,569.831,0.0
55929.0,STARLINK-5898,PAYLOAD,2023-09-18 13:59:40,14.98329515,0.0003272,70.0008,61.3859,271.8806,88.1979,1.3059e-06,-7.7e-07,0.0,0 STARLINK-5898,1 55929U 23037R   23261.58310513 -.00000077  00000-0  13059-5 0  9993,2 55929  70.0008  61.3859 0003272 271.8806  88.1979 14.98329515 28217,6950.194,96.107,574.333,569.785,0.0
55929.0,STARLINK-5898,PAYLOAD,2023-09-18 17:11:56,14.98332634,0.0003237,70.0009,61.0492,271.739,88.3398,3.4845e-05,3.23e-06,0.0,0 STARLINK-5898,1 55929U 23037R   23261.71662218  .00000323  00000-0  34845-4 0  9998,2 55929  70.0009  61.0492 0003237 271.7390  88.3398 14.98332634 28578,6950.185,96.107,574.3,569.8,0.0
